[{"OBJECT_NAME":"SAPPHIRE","OBJECT_ID":"2013-009C","EPOCH":"2026-03-09T22:57:28.647648","MEAN_MOTION":14.35209243,"ECCENTRICITY":0.00112275,"INCLINATION":98.4222,"RA_OF_ASC_NODE":250.7769,"ARG_OF_PERICENTER":178.7646,"MEAN_ANOMALY":181.357,"EPHEMERIS_TYPE":0,"CLASSIFICATION_TYPE":"U","NORAD_CAT_ID":39088,"ELEMENT_SET_NO":999,"REV_AT_EPOCH":68234,"BSTAR":9.3997997e-5,"MEAN_MOTION_DOT":2.26e-6,"MEAN_MOTION_DDOT":0},{"OBJECT_NAME":"FENGYUN 1C DEB","OBJECT_ID":"1999-025AUL","EPOCH":"2026-03-09T18:30:39.818880","MEAN_MOTION":14.33404592,"ECCENTRICITY":0.00214324,"INCLINATION":98.8291,"RA_OF_ASC_NODE":162.2655,"ARG_OF_PERICENTER":146.2787,"MEAN_ANOMALY":345.0653,"EPHEMERIS_TYPE":0,"CLASSIFICATION_TYPE":"U","NORAD_CAT_ID":30802,"ELEMENT_SET_NO":999,"REV_AT_EPOCH":98449,"BSTAR":0.001890666,"MEAN_MOTION_DOT":5.187e-5,"MEAN_MOTION_DDOT":0}]
